GOES 1 (SMS-C)          
1 08366U 75100A   25273.55215941 -.00000138  00000+0  00000+0 0  9998
2 08366   5.2738 280.6811 0005227 322.0492 228.6923  1.00229288182469
GOES 2                  
1 10061U 77048A   25273.54825939  .00000064  00000+0  00000+0 0  9996
2 10061   7.0418 295.4922 0010952  41.3153 112.8706  0.99394508 43691
GOES 3                  
1 10953U 78062A   25273.41808547 -.00000237  00000+0  00000+0 0  9998
2 10953   7.4941 301.1242 0002640 276.4070 248.9965  0.99362221125955
GOES 4                  
1 11964U 80074A   25273.39069868 -.00000218  00000+0  00000+0 0  9998
2 11964   8.5539 304.8684 0030161 104.1832 269.7271  0.99234458124865
GOES 5                  
1 12472U 81049A   25273.55805278 -.00000280  00000+0  00000+0 0  9996
2 12472   9.8270 317.3420 0004084 287.9193 257.9383  1.00260202120248
GOES 6                  
1 14050U 83041A   25273.55519277 -.00000226  00000+0  00000+0 0  9995
2 14050  10.6076 322.8917 0003948 241.8023 282.5208  1.00237319213412
GOES 7                  
1 17561U 87022A   25272.85351734 -.00000033  00000+0  00000+0 0  9998
2 17561  13.1646 339.4585 0000436  43.9609   8.9968  0.99888932124366
GOES 8                  
1 23051U 94022A   25271.40292683  .00000019  00000+0  00000+0 0  9997
2 23051  14.2060  15.6393 0002762  94.6377 262.9341  0.98904609121530
GOES 9                  
1 23581U 95025A   25270.93780970 -.00000030  00000+0  00000+0 0  9991
2 23581  13.7285  16.4324 0008418 175.7179 187.0142  0.98799758110170
GOES 10                 
1 24786U 97019A   25271.50658062 -.00000039  00000+0  00000+0 0  9993
2 24786  12.8165  22.9477 0031349 228.1556 323.1533  0.99125829103472
GOES 11                 
1 26352U 00022A   25271.90960266  .00000025  00000+0  00000+0 0  9992
2 26352  11.2470  48.9306 0004999 200.3288 343.0489  0.99039871 49885
GOES 12                 
1 26871U 01031A   25273.48741181  .00000036  00000+0  00000+0 0  9999
2 26871  11.7104  39.4206 0004868 270.9436  87.6517  0.99137203 88184
EWS-G1 (GOES 13)        
1 29155U 06018A   25273.78444558 -.00000188  00000+0  00000+0 0  9997
2 29155   3.8522  79.5736 0058866 267.8265 300.1879  0.98789467 40684
GOES 14                 
1 35491U 09033A   25273.54990605 -.00000064  00000+0  00000+0 0  9993
2 35491   1.0029  86.3455 0003812 109.2650 263.5116  1.00270974  3999
EWS-G2 (GOES 15)        
1 36411U 10008A   25273.69416728  .00000040  00000+0  00000+0 0  9998
2 36411   0.6190  85.5095 0005244 139.6321  95.8129  1.00272872 57033
GOES 16                 
1 41866U 16071A   25273.55068608 -.00000089  00000+0  00000+0 0  9993
2 41866   0.1022  77.3358 0002301 136.2712 249.5092  1.00272246 32508
GOES 17                 
1 43226U 18022A   25272.38864182 -.00000179  00000+0  00000+0 0  9994
2 43226   0.2609  91.6153 0002417 151.2130 176.0020  1.00272013 27807
GOES 18                 
1 51850U 22021A   25273.68701337  .00000098  00000+0  00000+0 0  9995
2 51850   0.0435  17.7417 0000305 218.9999 243.2823  1.00271218  3992
GOES 19                 
1 60133U 24119A   25273.77047375 -.00000247  00000+0  00000+0 0  9991
2 60133   0.0123 308.3037 0000406 313.5960 310.0610  1.00272877  4360
